NORAD_CAT_ID,OBJECT_NAME,OBJECT_TYPE,EPOCH,MEAN_MOTION,ECCENTRICITY,INCLINATION,RA_OF_ASC_NODE,ARG_OF_PERICENTER,MEAN_ANOMALY,BSTAR,MEAN_MOTION_DOT,MEAN_MOTION_DDOT,TLE_LINE0,TLE_LINE1,TLE_LINE2,SEMIMAJOR_AXIS,PERIOD,APOGEE,PERIGEE,DECAYED
53966.0,STARLINK-4635,PAYLOAD,2024-07-12 08:07:57,15.08845271,0.0001265,53.2179,61.7211,84.672,275.4416,0.00013893,1.924e-05,0.0,0 STARLINK-4635,1 53966U 22125C   24194.33885795  .00001924  00000-0  13893-3 0  9992,2 53966  53.2179  61.7211 0001265  84.6720 275.4416 15.08845271 97935,6917.864,95.437,540.604,538.854,0.0
53966.0,STARLINK-4635,PAYLOAD,2024-07-12 20:51:02,15.08835651,0.0001655,53.2187,59.353,107.8199,252.2974,1.1255e-05,-1.09e-06,0.0,0 STARLINK-4635,1 53966U 22125C   24194.86878441 -.00000109  00000-0  11255-4 0  9996,2 53966  53.2187  59.3530 0001655 107.8199 252.2974 15.08835651 98082,6917.894,95.438,540.904,538.614,0.0
53966.0,STARLINK-4635,PAYLOAD,2024-07-12 22:26:25,15.08838056,0.0001438,53.218,59.0481,90.2194,269.8963,5.0141e-05,5.1e-06,0.0,0 STARLINK-4635,1 53966U 22125C   24194.93502305  .00000510  00000-0  50141-4 0  9999,2 53966  53.2180  59.0481 0001438  90.2194 269.8963 15.08838056 98024,6917.886,95.438,540.746,538.757,0.0
53966.0,STARLINK-4635,PAYLOAD,2024-07-13 14:20:17,15.08842884,0.0001518,53.2191,56.0768,89.491,270.6256,1.9012e-05,1.5e-07,0.0,0 STARLINK-4635,1 53966U 22125C   24195.59742286  .00000015  00000-0  19012-4 0  9998,2 53966  53.2191  56.0768 0001518  89.4910 270.6256 15.08842884 98126,6917.872,95.437,540.787,538.686,0.0
53966.0,STARLINK-4635,PAYLOAD,2024-07-13 22:17:12,15.08844673,0.0001391,53.2181,54.5883,93.9363,266.1788,7.0694e-05,8.37e-06,0.0,0 STARLINK-4635,1 53966U 22125C   24195.92862223  .00000837  00000-0  70694-4 0  9994,2 53966  53.2181  54.5883 0001391  93.9363 266.1788 15.08844673 98170,6917.866,95.437,540.693,538.769,0.0
53966.0,STARLINK-4635,PAYLOAD,2024-07-14 14:11:04,15.0884093,0.0001395,53.2174,51.6151,85.383,274.7322,0.00020393,2.959e-05,0.0,0 STARLINK-4635,1 53966U 22125C   24196.59102543  .00002959  00000-0  20393-3 0  9997,2 53966  53.2174  51.6151 0001395  85.3830 274.7322 15.08840930 98278,6917.878,95.437,540.708,538.778,0.0
53966.0,STARLINK-4635,PAYLOAD,2024-07-14 20:32:36,15.08850506,0.0001157,53.2164,50.4246,96.4328,263.6796,0.00023045,3.383e-05,0.0,0 STARLINK-4635,1 53966U 22125C   24196.85597978  .00003383  00000-0  23045-3 0  9995,2 53966  53.2164  50.4246 0001157  96.4328 263.6796 15.08850506 98317,6917.848,95.437,540.514,538.913,0.0
53966.0,STARLINK-4635,PAYLOAD,2024-07-15 07:40:18,15.08846655,0.0001084,53.2153,48.3441,89.7763,270.3353,0.00021216,3.091e-05,0.0,0 STARLINK-4635,1 53966U 22125C   24197.31966054  .00003091  00000-0  21216-3 0  9996,2 53966  53.2153  48.3441 0001084  89.7763 270.3353 15.08846655 98454,6917.86,95.437,540.475,538.975,0.0
53966.0,STARLINK-4635,PAYLOAD,2024-07-15 14:01:51,15.08841461,0.0001663,53.2187,47.1528,109.7587,250.3585,8.0676e-05,9.96e-06,0.0,0 STARLINK-4635,1 53966U 22125C   24197.58462545  .00000996  00000-0  80676-4 0  9998,2 53966  53.2187  47.1528 0001663 109.7587 250.3585 15.08841461 98426,6917.876,95.437,540.891,538.59,0.0
53966.0,STARLINK-4635,PAYLOAD,2024-07-15 18:48:01,15.08842092,0.0001558,53.2184,46.261,109.4003,250.7158,9.4283e-05,1.213e-05,0.0,0 STARLINK-4635,1 53966U 22125C   24197.78334525  .00001213  00000-0  94283-4 0  9998,2 53966  53.2184  46.2610 0001558 109.4003 250.7158 15.08842092 98520,6917.874,95.437,540.817,538.661,0.0
53966.0,STARLINK-4635,PAYLOAD,2024-07-15 20:23:24,15.08840297,0.0001683,53.2192,45.9646,102.4221,257.696,7.6307e-05,9.27e-06,0.0,0 STARLINK-4635,1 53966U 22125C   24197.84958648  .00000927  00000-0  76307-4 0  9991,2 53966  53.2192  45.9646 0001683 102.4221 257.6960 15.08840297 98463,6917.879,95.438,540.909,538.58,0.0
53966.0,STARLINK-4635,PAYLOAD,2024-07-15 23:34:10,15.0884431,0.000166,53.2189,45.3683,106.385,253.7325,0.00011179,1.492e-05,0.0,0 STARLINK-4635,1 53966U 22125C   24197.98206396  .00001492  00000-0  11179-3 0  9995,2 53966  53.2189  45.3683 0001660 106.3850 253.7325 15.08844310 98484,6917.867,95.437,540.881,538.584,0.0
53966.0,STARLINK-4635,PAYLOAD,2024-07-16 20:14:10,15.08851454,0.0001517,53.2185,41.5022,99.7999,260.3165,0.00011209,1.497e-05,0.0,0 STARLINK-4635,1 53966U 22125C   24198.84317919  .00001497  00000-0  11209-3 0  9994,2 53966  53.2185  41.5022 0001517  99.7999 260.3165 15.08851454 98613,6917.845,95.437,540.76,538.661,0.0
53966.0,STARLINK-4635,PAYLOAD,2024-07-17 20:04:58,15.08838505,0.0001418,53.2181,37.0411,99.7861,260.3292,7.0604e-05,8.36e-06,0.0,0 STARLINK-4635,1 53966U 22125C   24199.83678826  .00000836  00000-0  70604-4 0  9992,2 53966  53.2181  37.0411 0001418  99.7861 260.3292 15.08838505 98836,6917.885,95.438,540.731,538.769,0.0
53966.0,STARLINK-4635,PAYLOAD,2024-07-18 11:58:50,15.08833235,0.0001372,53.2181,34.0682,98.1179,261.9969,2.5019e-05,1.1e-06,0.0,0 STARLINK-4635,1 53966U 22125C   24200.49919377  .00000110  00000-0  25019-4 0  9991,2 53966  53.2181  34.0682 0001372  98.1179 261.9969 15.08833235 98931,6917.901,95.438,540.715,538.817,0.0
53966.0,STARLINK-4635,PAYLOAD,2024-07-18 18:20:22,15.08843435,0.0001322,53.2176,32.8821,97.0642,263.05,4.5032e-05,4.29e-06,0.0,0 STARLINK-4635,1 53966U 22125C   24200.76414724  .00000429  00000-0  45032-4 0  9997,2 53966  53.2176  32.8821 0001322  97.0642 263.0500 15.08843435 98975,6917.87,95.437,540.649,538.82,0.0
53966.0,STARLINK-4635,PAYLOAD,2024-07-19 19:46:33,15.08838559,0.0001201,53.2176,28.1246,96.7625,263.3504,4.1983e-05,3.8e-06,0.0,0 STARLINK-4635,1 53966U 22125C   24201.82399351  .00000380  00000-0  41983-4 0  9990,2 53966  53.2176  28.1246 0001201  96.7625 263.3504 15.08838559 99134,6917.885,95.438,540.581,538.919,0.0
53966.0,STARLINK-4635,PAYLOAD,2024-07-20 05:18:51,15.08840271,0.0001149,53.2174,26.3398,84.3832,275.7291,5.9055e-05,6.52e-06,0.0,0 STARLINK-4635,1 53966U 22125C   24202.22143326  .00000652  00000-0  59055-4 0  9995,2 53966  53.2174  26.3398 0001149  84.3832 275.7291 15.08840271 99127,6917.88,95.438,540.539,538.95,0.0
53966.0,STARLINK-4635,PAYLOAD,2024-07-20 19:37:20,15.08840228,0.0001439,53.2184,23.6617,90.4304,269.6853,5.2868e-05,5.54e-06,0.0,0 STARLINK-4635,1 53966U 22125C   24202.81759622  .00000554  00000-0  52868-4 0  9998,2 53966  53.2184  23.6617 0001439  90.4304 269.6853 15.08840228 99214,6917.88,95.438,540.74,538.749,0.0
53966.0,STARLINK-4635,PAYLOAD,2024-07-21 11:31:13,15.08811076,0.0001259,53.2187,20.69,87.1618,272.9518,-0.00024851,-4.237e-05,0.0,0 STARLINK-4635,1 53966U 22125C   24203.48001964 -.00004237  00000-0 -24851-3 0  9995,2 53966  53.2187  20.6900 0001259  87.1618 272.9518 15.08811076 99382,6917.969,95.439,540.705,538.963,0.0
53966.0,STARLINK-4635,PAYLOAD,2024-07-21 19:28:08,15.0884284,0.0001217,53.2186,19.2007,78.4011,281.7118,0.00013339,1.836e-05,0.0,0 STARLINK-4635,1 53966U 22125C   24203.81120793  .00001836  00000-0  13339-3 0  9993,2 53966  53.2186  19.2007 0001217  78.4011 281.7118 15.08842840 99430,6917.872,95.437,540.579,538.895,0.0
53966.0,STARLINK-4635,PAYLOAD,2024-07-22 11:21:59,15.08844866,0.0001234,53.2175,16.2243,94.7804,265.3329,0.00032219,4.844e-05,0.0,0 STARLINK-4635,1 53966U 22125C   24204.47360939  .00004844  00000-0  32219-3 0  9994,2 53966  53.2175  16.2243 0001234  94.7804 265.3329 15.08844866 99462,6917.866,95.437,540.584,538.877,0.0
53966.0,STARLINK-4635,PAYLOAD,2024-07-23 11:12:45,15.08857215,0.0001284,53.2177,11.7711,89.827,270.2869,0.00084577,0.00013204,0.0,0 STARLINK-4635,1 53966U 22125C   24205.46719495  .00013204  00000-0  84577-3 0  9993,2 53966  53.2177  11.7711 0001284  89.8270 270.2869 15.08857215 99681,6917.828,95.436,540.581,538.805,0.0
53966.0,STARLINK-4635,PAYLOAD,2024-07-25 10:54:19,15.08830788,9.83e-05,53.2184,2.8478,99.2828,260.8276,-0.00020535,-3.554e-05,0.0,0 STARLINK-4635,1 53966U 22125C   24207.45439762 -.00003554  00000-0 -20535-3 0  9993,2 53966  53.2184   2.8478 0000983  99.2828 260.8276 15.08830788 99985,6917.909,95.438,540.454,539.094,0.0
53966.0,STARLINK-4635,PAYLOAD,2024-07-26 09:09:43,15.08839389,0.000123,53.2196,358.6855,82.6292,277.484,2.9933e-06,-2.4e-06,0.0,0 STARLINK-4635,1 53966U 22125C   24208.38175840 -.00000240  00000-0  29933-5 0  9991,2 53966  53.2196 358.6855 0001230  82.6292 277.4840 15.08839389100122,6917.882,95.438,540.598,538.896,0.0
53966.0,STARLINK-4635,PAYLOAD,2024-07-26 13:55:53,15.08850391,0.0001123,53.2181,357.7936,64.1776,295.9332,7.4764e-05,9.03e-06,0.0,0 STARLINK-4635,1 53966U 22125C   24208.58047480  .00000903  00000-0  74764-4 0  9997,2 53966  53.2181 357.7936 0001123  64.1776 295.9332 15.08850391100081,6917.849,95.437,540.491,538.937,0.0
53966.0,STARLINK-4635,PAYLOAD,2024-07-26 20:17:22,15.08876316,0.0001267,53.2173,356.6009,82.8112,277.3024,0.00036562,5.541e-05,0.0,0 STARLINK-4635,1 53966U 22125C   24208.84540225  .00005541  00000-0  36562-3 0  9997,2 53966  53.2173 356.6009 0001267  82.8112 277.3024 15.08876316100190,6917.769,95.435,540.511,538.758,0.0
53966.0,STARLINK-4635,PAYLOAD,2024-07-27 02:38:58,15.08832632,0.0001513,53.2174,355.4134,75.3744,284.7415,-3.675e-06,-3.46e-06,0.0,0 STARLINK-4635,1 53966U 22125C   24209.11039996 -.00000346  00000-0 -36750-5 0  9997,2 53966  53.2174 355.4134 0001513  75.3744 284.7415 15.08832632100233,6917.903,95.438,540.815,538.721,0.0
53966.0,STARLINK-4635,PAYLOAD,2024-07-27 10:35:56,15.08811338,0.0001187,53.217,353.928,83.7753,276.3375,-0.00016759,-2.952e-05,0.0,0 STARLINK-4635,1 53966U 22125C   24209.44162050 -.00002952  00000-0 -16759-3 0  9991,2 53966  53.2170 353.9280 0001187  83.7753 276.3375 15.08811338100281,6917.968,95.439,540.654,539.012,0.0
53966.0,STARLINK-4635,PAYLOAD,2024-07-27 18:32:51,15.08823335,9.46e-05,53.2174,352.4395,83.5295,276.5804,-7.3578e-05,-1.458e-05,0.0,0 STARLINK-4635,1 53966U 22125C   24209.77281329 -.00001458  00000-0 -73578-4 0  9991,2 53966  53.2174 352.4395 0000946  83.5295 276.5804 15.08823335100264,6917.931,95.439,540.451,539.142,0.0
